OBJECT_NAME,OBJECT_ID,EPOCH,MEAN_MOTION,ECCENTRICITY,INCLINATION,RA_OF_ASC_NODE,ARG_OF_PERICENTER,MEAN_ANOMALY,EPHEMERIS_TYPE,CLASSIFICATION_TYPE,NORAD_CAT_ID,ELEMENT_SET_NO,REV_AT_EPOCH,BSTAR,MEAN_MOTION_DOT,MEAN_MOTION_DDOT
H-2A R/B,2006-002B,2026-07-23T10:24:32.072256,15.18547085,.00511996,98.2600,3.5628,138.2774,222.2380,0,U,28932,999,11502,.38937338E-3,.8243E-4,0
RESURS-DK 1,2006-021A,2026-07-23T07:47:10.675104,15.13340824,.00075724,69.9299,245.9974,262.5212,97.5094,0,U,29228,999,10804,.95008953E-4,.1589E-4,0
CZ-4B R/B,2006-046C,2026-07-23T13:49:16.588416,15.18032409,.00333702,97.5436,249.0713,153.4602,206.8349,0,U,29507,999,8065,.19975845E-3,.4053E-4,0
CZ-2C R/B,2007-010B,2026-07-23T06:29:24.366624,14.20283420,.00577672,98.4119,310.8610,259.7960,99.6700,0,U,31114,999,99896,.5459467E-4,.77E-6,0
COSMO-SKYMED 1,2007-023A,2026-07-23T15:01:35.328576,14.97256632,.00019277,97.8863,36.7917,92.5596,267.5846,0,U,31598,999,3524,.27673906E-3,.3145E-4,0
COSMOS 2428,2007-029A,2026-07-23T14:29:04.094304,14.12940551,.00073486,70.9381,278.0187,64.5683,295.6198,0,U,31792,999,98329,.21352996E-3,.35E-5,0
SL-16 R/B,2007-029B,2026-07-23T09:11:57.217632,14.14856978,.00019333,70.9740,247.1399,260.4988,185.4822,0,U,31793,999,98456,.18125228E-3,.302E-5,0
KORONAS-FOTON,2009-003A,2026-07-23T12:23:48.999840,15.46461060,.00113303,82.4304,134.3436,36.0486,324.1525,0,U,33504,999,96671,.27904429E-3,.13901E-3,0
CZ-2C R/B,2011-030B,2026-07-23T09:30:08.465184,14.81543609,.00506472,97.8674,159.1353,268.7083,251.2245,0,U,37731,999,81018,.10621529E-3,.796E-5,0
H-2A R/B,2012-025E,2026-07-23T09:55:49.038528,14.95859179,.00427632,98.4854,182.5552,227.1222,132.6403,0,U,38341,999,76850,.18683307E-3,.2055E-4,0
SHIJIAN-16 (SJ-16),2013-057A,2026-07-23T15:13:19.320096,14.92686038,.00154712,74.9730,287.6505,144.3480,215.8746,0,U,39358,999,69178,.82150947E-4,.82E-5,0
SL-4 R/B,2014-021B,2026-07-23T11:29:17.298816,15.42612492,.00892559,51.6069,32.8895,239.0431,120.1760,0,U,39679,999,67721,.22437795E-3,.11028E-3,0
ALOS-2,2014-029A,2026-07-23T14:14:19.386816,14.79475321,.00016121,97.9224,301.2372,93.2925,266.8471,0,U,39766,999,65696,.19444758E-3,.1401E-4,0
YAOGAN-29,2015-069A,2026-07-23T14:38:44.083680,14.83109926,.00000526,98.0025,233.2984,121.2975,238.8244,0,U,41038,999,57602,-.2378145E-5,-.73E-6,0
ASTRO-H (HITOMI),2016-012A,2026-07-23T05:51:58.404672,15.10656796,.00097035,30.9974,201.2912,255.7612,104.1948,0,U,41337,999,57274,.11463995E-3,.2041E-4,0
HXMT (HUIYAN),2017-034A,2026-07-23T13:44:33.524736,15.18747346,.00311528,43.0151,340.3959,13.7012,346.4676,0,U,42758,999,50319,.29219696E-3,.6018E-4,0
SAOCOM 1A,2018-076A,2026-07-23T14:12:09.148320,14.82149442,.00014353,97.8897,30.8118,87.8927,272.2451,0,U,43641,999,42149,-.15559545E-4,-.176E-5,0
H-2A R/B,2018-084L,2026-07-23T15:16:04.271520,15.46457419,.00202325,98.8521,91.5238,268.7185,91.1742,0,U,43682,999,42675,.41455194E-3,.20611E-3,0
SAOCOM 1B,2020-059A,2026-07-23T14:57:05.495328,14.82149049,.00015229,97.8902,29.9394,87.7445,272.3942,0,U,46265,999,31888,.96487712E-4,.716E-5,0
CSS (TIANHE),2021-035A,2026-07-23T00:49:30.417312,15.58280026,.00017398,41.4690,104.3124,306.7625,53.3054,0,U,48274,999,29876,.14911554E-3,.11304E-3,0
COSMOS 2550,2021-056A,2026-07-23T14:32:11.679936,15.33894229,.00085704,67.1441,349.7405,269.2450,90.7723,0,U,48865,999,28430,.19072465E-3,.6101E-4,0
CZ-2C R/B,2022-058K,2026-07-23T08:38:26.860704,15.64379383,.00298775,50.1859,334.9356,56.6037,303.7790,0,U,52794,999,23130,.42964136E-3,.42695E-3,0
CZ-2C R/B,2022-132E,2026-07-23T06:27:28.310688,15.75882996,.00084745,97.2909,213.0233,301.3294,58.7141,0,U,54039,999,21162,.48121452E-3,.7464E-3,0
GSLV R/B,2022-138AN,2026-07-23T06:33:04.100832,14.97411456,.00225214,87.3816,120.8669,24.9712,335.2604,0,U,54149,999,20421,.17682965E-3,.2094E-4,0
XRISM,2023-137A,2026-07-23T11:37:38.191584,15.12718060,.00077936,31.0019,124.4291,328.5427,31.4745,0,U,57800,999,15836,.25133128E-3,.4613E-4,0
ACS3,2024-077B,2026-07-23T08:33:30.176928,13.95779786,.01305933,97.1782,115.1445,27.3125,333.4830,0,U,59588,999,11308,.25193726E-1,.37065E-3,0
SPACEMOBILE-003,2024-163A,2026-07-23T00:49:19.736544,15.20673687,.00035967,52.9686,144.5962,220.2566,139.8162,0,U,61045,999,10322,.1267806E-3,.2495E-4,0
SPACEMOBILE-005,2024-163B,2026-07-23T05:09:29.939904,15.20624425,.0008301,52.9740,143.7232,219.1098,140.9297,0,U,61046,999,10324,.82556555E-4,.1507E-4,0
SPACEMOBILE-001,2024-163C,2026-07-23T13:00:13.122720,15.20677408,.00067121,52.9700,141.9250,219.0311,141.0200,0,U,61047,999,10329,.13127044E-4,-.36E-6,0
SPACEMOBILE-002,2024-163D,2026-07-23T01:35:18.500640,15.20478362,.00047835,52.9773,144.1623,212.6215,147.4484,0,U,61048,999,10322,.10166567E-2,.22234E-3,0
