H-2A R/B                
1 28932U 06002B   26204.43370454  .00008243  00000+0  38937-3 0  9995
2 28932  98.2600   3.5628 0051199 138.2774 222.2380 15.18547085115024
RESURS-DK 1             
1 29228U 06021A   26204.32442911  .00001589  00000+0  95009-4 0  9991
2 29228  69.9299 245.9974 0007572 262.5212  97.5094 15.13340824108048
CZ-4B R/B               
1 29507U 06046C   26204.57588644  .00004053  00000+0  19976-3 0  9996
2 29507  97.5436 249.0713 0033370 153.4602 206.8349 15.18032409 80656
CZ-2C R/B               
1 31114U 07010B   26204.27042091  .00000077  00000+0  54595-4 0  9992
2 31114  98.4119 310.8610 0057767 259.7960  99.6700 14.20283420998961
COSMO-SKYMED 1          
1 31598U 07023A   26204.62610334  .00003145  00000+0  27674-3 0  9998
2 31598  97.8863  36.7917 0001927  92.5596 267.5846 14.97256632 35244
COSMOS 2428             
1 31792U 07029A   26204.60351961  .00000350  00000+0  21353-3 0  9999
2 31792  70.9381 278.0187 0007348  64.5683 295.6198 14.12940551983292
SL-16 R/B               
1 31793U 07029B   26204.38330113  .00000302  00000+0  18125-3 0  9991
2 31793  70.9740 247.1399 0001933 260.4988 185.4822 14.14856978984565
KORONAS-FOTON           
1 33504U 09003A   26204.51653935  .00013901  00000+0  27904-3 0  9996
2 33504  82.4304 134.3436 0011330  36.0486 324.1525 15.46461060966711
CZ-2C R/B               
1 37731U 11030B   26204.39593131  .00000796  00000+0  10622-3 0  9999
2 37731  97.8674 159.1353 0050647 268.7083 251.2245 14.81543609810187
H-2A R/B                
1 38341U 12025E   26204.41376202  .00002055  00000+0  18683-3 0  9998
2 38341  98.4854 182.5552 0042763 227.1222 132.6403 14.95859179768500
SHIJIAN-16 (SJ-16)      
1 39358U 13057A   26204.63425139  .00000820  00000+0  82151-4 0  9991
2 39358  74.9730 287.6505 0015471 144.3480 215.8746 14.92686038691786
SL-4 R/B                
1 39679U 14021B   26204.47867244  .00011028  00000+0  22438-3 0  9991
2 39679  51.6069  32.8895 0089255 239.0431 120.1760 15.42612492677215
ALOS-2                  
1 39766U 14029A   26204.59327994  .00001401  00000+0  19445-3 0  9990
2 39766  97.9224 301.2372 0001612  93.2925 266.8471 14.79475321656963
YAOGAN-29               
1 41038U 15069A   26204.61023245 -.00000073  00000+0 -23781-5 0  9991
2 41038  98.0025 233.2984 0000052 121.2975 238.8244 14.83109926576021
ASTRO-H (HITOMI)        
1 41337U 16012A   26204.24442598  .00002041  00000+0  11464-3 0  9995
2 41337  30.9974 201.2912 0009703 255.7612 104.1948 15.10656796572744
HXMT (HUIYAN)           
1 42758U 17034A   26204.57261024  .00006018  00000+0  29220-3 0  9994
2 42758  43.0151 340.3959 0031152  13.7012 346.4676 15.18747346503191
SAOCOM 1A               
1 43641U 18076A   26204.59177255 -.00000176  00000+0 -15560-4 0  9991
2 43641  97.8897  30.8118 0001435  87.8927 272.2451 14.82149442421495
H-2A R/B                
1 43682U 18084L   26204.63616055  .00020611  00000+0  41455-3 0  9991
2 43682  98.8521  91.5238 0020232 268.7185  91.1742 15.46457419426756
SAOCOM 1B               
1 46265U 20059A   26204.62298027  .00000716  00000+0  96488-4 0  9991
2 46265  97.8902  29.9394 0001522  87.7445 272.3942 14.82149049318880
CSS (TIANHE)            
1 48274U 21035A   26204.03437983  .00011304  00000+0  14912-3 0  9995
2 48274  41.4690 104.3124 0001739 306.7625  53.3054 15.58280026298764
COSMOS 2550             
1 48865U 21056A   26204.60569074  .00006101  00000+0  19072-3 0  9995
2 48865  67.1441 349.7405 0008570 269.2450  90.7723 15.33894229284307
CZ-2C R/B               
1 52794U 22058K   26204.36003311  .00042695  00000+0  42964-3 0  9998
2 52794  50.1859 334.9356 0029877  56.6037 303.7790 15.64379383231307
CZ-2C R/B               
1 54039U 22132E   26204.26907767  .00074640  00000+0  48121-3 0  9998
2 54039  97.2909 213.0233 0008474 301.3294  58.7141 15.75882996211626
GSLV R/B                
1 54149U 22138AN  26204.27296413  .00002094  00000+0  17683-3 0  9999
2 54149  87.3816 120.8669 0022521  24.9712 335.2604 14.97411456204211
XRISM                   
1 57800U 23137A   26204.48446981  .00004613  00000+0  25133-3 0  9994
2 57800  31.0019 124.4291 0007793 328.5427  31.4745 15.12718060158364
ACS3                    
1 59588U 24077B   26204.35659927  .00037065  00000+0  25194-1 0  9997
2 59588  97.1782 115.1445 0130593  27.3125 333.4830 13.95779786113082
SPACEMOBILE-003         
1 61045U 24163A   26204.03425621  .00002495  00000+0  12678-3 0  9995
2 61045  52.9686 144.5962 0003596 220.2566 139.8162 15.20673687103224
SPACEMOBILE-005         
1 61046U 24163B   26204.21492986  .00001507  00000+0  82557-4 0  9991
2 61046  52.9740 143.7232 0008301 219.1098 140.9297 15.20624425103243
SPACEMOBILE-001         
1 61047U 24163C   26204.54181855 -.00000036  00000+0  13127-4 0  9992
2 61047  52.9700 141.9250 0006712 219.0311 141.0200 15.20677408103291
SPACEMOBILE-002         
1 61048U 24163D   26204.06618635  .00022234  00000+0  10167-2 0  9993
2 61048  52.9773 144.1623 0004783 212.6215 147.4484 15.20478362103224
